{
  "norad_id": 45746,
  "name": "STARLINK-1504",
  "history": [
    {
      "epoch": "2026-03-28T22:02:51.215712Z",
      "apogee_km": 404.4486699556137,
      "perigee_km": 403.0010137268546,
      "latitude_deg": 2.9065866396234487e-05,
      "longitude_deg": -107.71937408273288,
      "height_km": 404.23036013512416,
      "semi_major_axis_km": 6781.861841841234,
      "eccentricity": 0.00010673,
      "inclination_deg": 53.0227,
      "raan_deg": 49.3262,
      "arg_perigee_deg": 57.6255,
      "mean_anomaly_deg": 302.4858,
      "mean_motion_rev_day": 15.54459297
    },
    {
      "epoch": "2026-03-29T04:13:10.948224Z",
      "apogee_km": 404.38625638798203,
      "perigee_km": 402.89833401061514,
      "latitude_deg": -6.44833188739364e-05,
      "longitude_deg": 158.20215602322259,
      "height_km": 404.13040873223457,
      "semi_major_axis_km": 6781.779295199298,
      "eccentricity": 0.0001097,
      "inclination_deg": 53.0224,
      "raan_deg": 48.0835,
      "arg_perigee_deg": 57.0224,
      "mean_anomaly_deg": 303.089,
      "mean_motion_rev_day": 15.54487678
    },
    {
      "epoch": "2026-03-30T03:21:51.753312Z",
      "apogee_km": 404.1101186632786,
      "perigee_km": 402.6466676414366,
      "latitude_deg": 3.9178254346338536e-05,
      "longitude_deg": 165.4191952761449,
      "height_km": 403.8959045632728,
      "semi_major_axis_km": 6781.515393152357,
      "eccentricity": 0.0001079,
      "inclination_deg": 53.0228,
      "raan_deg": 43.421,
      "arg_perigee_deg": 59.1153,
      "mean_anomaly_deg": 300.9963,
      "mean_motion_rev_day": 15.54578418
    },
    {
      "epoch": "2026-03-30T14:09:53.101152Z",
      "apogee_km": 403.98029212629444,
      "perigee_km": 402.5228360960955,
      "latitude_deg": 6.0455566784529205e-05,
      "longitude_deg": 0.794340111432934,
      "height_km": 403.79267341838494,
      "semi_major_axis_km": 6781.388564111195,
      "eccentricity": 0.00010746,
      "inclination_deg": 53.0229,
      "raan_deg": 41.2453,
      "arg_perigee_deg": 61.1154,
      "mean_anomaly_deg": 298.9964,
      "mean_motion_rev_day": 15.5462203
    },
    {
      "epoch": "2026-03-31T13:18:26.875008Z",
      "apogee_km": 403.75041916693044,
      "perigee_km": 402.27077276149066,
      "latitude_deg": -6.027974462826754e-05,
      "longitude_deg": 8.040589035517556,
      "height_km": 403.59064110045864,
      "semi_major_axis_km": 6781.14759596421,
      "eccentricity": 0.0001091,
      "inclination_deg": 53.0233,
      "raan_deg": 36.5828,
      "arg_perigee_deg": 64.9624,
      "mean_anomaly_deg": 295.1498,
      "mean_motion_rev_day": 15.54704896
    },
    {
      "epoch": "2026-04-01T03:11:33.106848Z",
      "apogee_km": 403.5850090918566,
      "perigee_km": 402.16262426295,
      "latitude_deg": 5.534513356467228e-05,
      "longitude_deg": 156.39657106230788,
      "height_km": 403.5059834871683,
      "semi_major_axis_km": 6781.0108166774025,
      "eccentricity": 0.00010488,
      "inclination_deg": 53.0235,
      "raan_deg": 33.7849,
      "arg_perigee_deg": 68.4682,
      "mean_anomaly_deg": 291.644,
      "mean_motion_rev_day": 15.54751936
    },
    {
      "epoch": "2026-04-02T13:07:54.929856Z",
      "apogee_km": 403.2098371846969,
      "perigee_km": 401.7911922038729,
      "latitude_deg": 1.8912542178565788e-05,
      "longitude_deg": -0.927625400550524,
      "height_km": 403.1600519638866,
      "semi_major_axis_km": 6780.637514694285,
      "eccentricity": 0.00010461,
      "inclination_deg": 53.0242,
      "raan_deg": 26.9455,
      "arg_perigee_deg": 70.758,
      "mean_anomaly_deg": 289.3543,
      "mean_motion_rev_day": 15.54880331
    },
    {
      "epoch": "2026-04-03T18:26:25.765728Z",
      "apogee_km": 402.81361926793033,
      "perigee_km": 401.34502441261975,
      "latitude_deg": 3.145431724310107e-05,
      "longitude_deg": -87.66715856768093,
      "height_km": 402.83596564143676,
      "semi_major_axis_km": 6780.216321840275,
      "eccentricity": 0.0001083,
      "inclination_deg": 53.0239,
      "raan_deg": 21.0381,
      "arg_perigee_deg": 79.281,
      "mean_anomaly_deg": 280.8322,
      "mean_motion_rev_day": 15.55025219
    },
    {
      "epoch": "2026-04-04T02:09:10.288224Z",
      "apogee_km": 402.6806346210142,
      "perigee_km": 401.2714559256847,
      "latitude_deg": 3.665996239616574e-05,
      "longitude_deg": 154.775599154344,
      "height_km": 402.82362645031145,
      "semi_major_axis_km": 6780.11304527335,
      "eccentricity": 0.00010392,
      "inclination_deg": 53.0239,
      "raan_deg": 19.4831,
      "arg_perigee_deg": 86.2825,
      "mean_anomaly_deg": 273.8304,
      "mean_motion_rev_day": 15.55060749
    },
    {
      "epoch": "2026-04-04T23:44:47.673888Z",
      "apogee_km": 402.3694178136666,
      "perigee_km": 401.1030730888815,
      "latitude_deg": -2.792510535793021e-05,
      "longitude_deg": -174.37074615170883,
      "height_km": 402.6872970380204,
      "semi_major_axis_km": 6779.873245451274,
      "eccentricity": 9.339e-05,
      "inclination_deg": 53.0239,
      "raan_deg": 15.1294,
      "arg_perigee_deg": 95.22,
      "mean_anomaly_deg": 264.8916,
      "mean_motion_rev_day": 15.55143252
    },
    {
      "epoch": "2026-04-06T00:25:25.754880Z",
      "apogee_km": 402.13420326410323,
      "perigee_km": 400.8558358504961,
      "latitude_deg": -5.229177753423814e-05,
      "longitude_deg": 169.48110453110627,
      "height_km": 402.48374163118046,
      "semi_major_axis_km": 6779.6320195573,
      "eccentricity": 9.428e-05,
      "inclination_deg": 53.0239,
      "raan_deg": 10.1534,
      "arg_perigee_deg": 98.5696,
      "mean_anomaly_deg": 261.542,
      "mean_motion_rev_day": 15.55226253
    },
    {
      "epoch": "2026-04-07T10:21:10.748160Z",
      "apogee_km": 401.73953505638383,
      "perigee_km": 400.6130843568426,
      "latitude_deg": 3.6187606296973426e-05,
      "longitude_deg": 12.310373788055902,
      "height_km": 401.97150216632315,
      "semi_major_axis_km": 6779.313309706613,
      "eccentricity": 8.308e-05,
      "inclination_deg": 53.0236,
      "raan_deg": 3.3135,
      "arg_perigee_deg": 79.9347,
      "mean_anomaly_deg": 280.1757,
      "mean_motion_rev_day": 15.55335926
    },
    {
      "epoch": "2026-04-08T00:13:57.031968Z",
      "apogee_km": 401.7024455525534,
      "perigee_km": 400.4623907365867,
      "latitude_deg": -2.542216036578879e-05,
      "longitude_deg": 160.748364997048,
      "height_km": 401.9264638167271,
      "semi_major_axis_km": 6779.21941814457,
      "eccentricity": 9.146e-05,
      "inclination_deg": 53.0241,
      "raan_deg": 0.5144,
      "arg_perigee_deg": 85.4178,
      "mean_anomaly_deg": 274.6936,
      "mean_motion_rev_day": 15.55368238
    },
    {
      "epoch": "2026-04-09T10:09:31.411872Z",
      "apogee_km": 401.39913670812257,
      "perigee_km": 400.22624283279856,
      "latitude_deg": -1.8476299527869464e-05,
      "longitude_deg": 3.6189160994728833,
      "height_km": 401.6328108909192,
      "semi_major_axis_km": 6778.94968977046,
      "eccentricity": 8.651e-05,
      "inclination_deg": 53.0241,
      "raan_deg": 353.6715,
      "arg_perigee_deg": 82.7939,
      "mean_anomaly_deg": 277.3169,
      "mean_motion_rev_day": 15.55461069
    },
    {
      "epoch": "2026-04-09T20:57:10.935936Z",
      "apogee_km": 401.33465839996643,
      "perigee_km": 400.1497103185411,
      "latitude_deg": -3.1700179954329675e-05,
      "longitude_deg": -160.91658536110222,
      "height_km": 401.5686210758909,
      "semi_major_axis_km": 6778.8791843592535,
      "eccentricity": 8.74e-05,
      "inclination_deg": 53.0238,
      "raan_deg": 351.494,
      "arg_perigee_deg": 83.4861,
      "mean_anomaly_deg": 276.6248,
      "mean_motion_rev_day": 15.55485336
    },
    {
      "epoch": "2026-04-11T20:45:14.973696Z",
      "apogee_km": 400.9906623629977,
      "perigee_km": 399.82881945160534,
      "latitude_deg": -3.376214968645304e-05,
      "longitude_deg": -169.5401373130016,
      "height_km": 401.2330511985998,
      "semi_major_axis_km": 6778.546740907301,
      "eccentricity": 8.57e-05,
      "inclination_deg": 53.024,
      "raan_deg": 341.8504,
      "arg_perigee_deg": 83.0366,
      "mean_anomaly_deg": 277.0741,
      "mean_motion_rev_day": 15.55599767
    },
    {
      "epoch": "2026-04-13T00:30:29.546784Z",
      "apogee_km": 400.8225639233542,
      "perigee_km": 399.69735002849575,
      "latitude_deg": -3.4752103544518813e-05,
      "longitude_deg": 127.41082178390035,
      "height_km": 401.050282221474,
      "semi_major_axis_km": 6778.396956975925,
      "eccentricity": 8.3e-05,
      "inclination_deg": 53.0231,
      "raan_deg": 336.2519,
      "arg_perigee_deg": 79.4115,
      "mean_anomaly_deg": 280.6988,
      "mean_motion_rev_day": 15.55651329
    },
    {
      "epoch": "2026-04-14T21:13:16.850784Z",
      "apogee_km": 400.5542067512142,
      "perigee_km": 399.5496791498699,
      "latitude_deg": 3.901714484025949e-05,
      "longitude_deg": 165.85447551788388,
      "height_km": 400.82814063319915,
      "semi_major_axis_km": 6778.188942950542,
      "eccentricity": 7.41e-05,
      "inclination_deg": 53.0227,
      "raan_deg": 327.2289,
      "arg_perigee_deg": 76.4583,
      "mean_anomaly_deg": 283.651,
      "mean_motion_rev_day": 15.55722941
    },
    {
      "epoch": "2026-04-15T20:20:52.918080Z",
      "apogee_km": 400.4629747120862,
      "perigee_km": 399.43270581636625,
      "latitude_deg": -1.8662961390593232e-05,
      "longitude_deg": 173.33767458444612,
      "height_km": 400.71135270597216,
      "semi_major_axis_km": 6778.084840264226,
      "eccentricity": 7.6e-05,
      "inclination_deg": 53.0226,
      "raan_deg": 322.5622,
      "arg_perigee_deg": 75.3501,
      "mean_anomaly_deg": 284.7593,
      "mean_motion_rev_day": 15.55758782
    }
  ]
}